# pptrain

Train reading real METARs

Example:
```shell
$ pptrain
CYZV 232200Z 31003KT 290V360 15SM FEW035 SCT065 BKN090 BKN200 M13/M14 A2953 RMK SC1SC3AC2CI2 SC TR SLP006

TAF CYZV 231740Z 2318/2418 VRB03KT 6SM -SN SCT015 OVC030
TEMPO 2318/2321 1 1/2SM -SN VV009 FM232100 26006KT P6SM BKN025
TEMPO 2321/2324 5SM -SN BKN015 FM240000 27006KT P6SM FEW030 SCT050
BECMG 2404/2406 30008KT FM241700 25008KT P6SM SKC RMK NXT FCST BY 240000Z
```
