# pptrain

Train reading real METARs

Example:
```shell
$ pptrain
KLYH 232154Z 22006KT 10SM BKN110 06/M08 A2978 RMK AO2 SLP090 T00611078
```
